*******************************************************************************
Ephemeris / WWW_USER Mon Jul 15 19:06:41 2024 Pasadena, USA      / Horizons    
*******************************************************************************
Target body name: (2017 SN16)                     {source: JPL#20}
Center body name: Earth (399)                     {source: DE441}
Center-site name: Gemini South Obs., Cerro Pachon
*******************************************************************************
Start time      : A.D. 2019-Jan-27 23:53:00.0000 UT      
Stop  time      : A.D. 2019-Jan-28 09:58:00.0000 UT      
Step-size       : 1 minutes
*******************************************************************************
Target pole/equ : undefined
Target radii    : undefined                                                    
Center geodetic : 289.2634, -30.2406227, 2.71233  {E-lon(deg),Lat(deg),Alt(km)}
Center cylindric: 289.2634,5517.21435,-3194.81213 {E-lon(deg),Dxy(km),Dz(km)}
Center pole/equ : ITRF93                          {East-longitude positive}
Center radii    : 6378.137, 6378.137, 6356.752 km {Equator_a, b, pole_c}       
Target primary  : Sun
Vis. interferer : MOON (R_eq= 1737.400) km        {source: DE441}
Rel. light bend : Sun                             {source: DE441}
Rel. lght bnd GM: 1.3271E+11 km^3/s^2                                          
Small-body perts: Yes                             {source: SB441-N16}
Atmos refraction: NO (AIRLESS)
RA format       : HMS
Time format     : CAL 
Calendar mode   : Mixed Julian/Gregorian
RTS-only print  : NO       
EOP file        : eop.240715.p241008                                           
EOP coverage    : DATA-BASED 1962-JAN-20 TO 2024-JUL-15. PREDICTS-> 2024-OCT-07
Units conversion: 1 au= 149597870.700 km, c= 299792.458 km/s, 1 day= 86400.0 s 
Table cut-offs 1: Elevation (-90.0deg=NO ),Airmass (>38.000=NO), Daylight (YES)
Table cut-offs 2: Solar elongation (  0.0,180.0=NO ),Local Hour Angle( 0.0=NO )
Table cut-offs 3: RA/DEC angular rate (     0.0=NO )                           
*******************************************************************************
Initial IAU76/J2000 heliocentric ecliptic osculating elements (au, days, deg.):
  EPOCH=  2458305.5 ! 2018-Jul-06.00 (TDB)         Residual RMS= .23751        
   EC= .1454884975659386   QR= .8682464985612274   TP= 2458145.5722438502      
   OM= 2.759719470837934   W=  137.1017088998531   IN= 13.38264682844635       
  Equivalent ICRF heliocentric cartesian coordinates (au, au/d):
   X= 5.756755401261899E-01  Y=-7.953424559592890E-01  Z=-6.031561894536019E-01
  VX= 1.332076113263395E-02 VY= 5.454663564585547E-03 VZ= 3.896229736425836E-03
Asteroid physical parameters (km, seconds, rotational period in hours):        
   GM= n.a.                RAD= n.a.               ROTPER= n.a.                
   H= 23.34                G= .150                 B-V= n.a.                   
                           ALBEDO= n.a.            STYP= n.a.                  
*******************************************************************************
 Date__(UT)__HR:MN     R.A._________(ICRF)_________DEC
******************************************************
$$SOE
 2019-Jan-28 03:59     19 01 14.429424 +27 31 53.33257
 2019-Jan-28 04:00     19 01 14.380142 +27 31 51.19504
 2019-Jan-28 04:01     19 01 14.330853 +27 31 49.05776
 2019-Jan-28 04:02     19 01 14.281555 +27 31 46.92074
 2019-Jan-28 04:03     19 01 14.232250 +27 31 44.78397
 2019-Jan-28 04:04     19 01 14.182936 +27 31 42.64745
 2019-Jan-28 04:05     19 01 14.133614 +27 31 40.51117
 2019-Jan-28 04:06     19 01 14.084283 +27 31 38.37515
 2019-Jan-28 04:07     19 01 14.034943 +27 31 36.23938
 2019-Jan-28 04:08     19 01 13.985593 +27 31 34.10386
 2019-Jan-28 04:09     19 01 13.936235 +27 31 31.96858
 2019-Jan-28 04:10     19 01 13.886866 +27 31 29.83356
 2019-Jan-28 04:11     19 01 13.837488 +27 31 27.69878
 2019-Jan-28 04:12     19 01 13.788100 +27 31 25.56425
 2019-Jan-28 04:13     19 01 13.738701 +27 31 23.42997
 2019-Jan-28 04:14     19 01 13.689292 +27 31 21.29593
 2019-Jan-28 04:15     19 01 13.639872 +27 31 19.16215
 2019-Jan-28 04:16     19 01 13.590442 +27 31 17.02860
 2019-Jan-28 04:17     19 01 13.541000 +27 31 14.89531
 2019-Jan-28 04:18     19 01 13.491546 +27 31 12.76226
 2019-Jan-28 04:19     19 01 13.442081 +27 31 10.62946
 2019-Jan-28 04:20     19 01 13.392604 +27 31 08.49690
 2019-Jan-28 04:21     19 01 13.343115 +27 31 06.36459
 2019-Jan-28 04:22     19 01 13.293614 +27 31 04.23252
 2019-Jan-28 04:23     19 01 13.244100 +27 31 02.10069
 2019-Jan-28 04:24     19 01 13.194574 +27 30 59.96911
 2019-Jan-28 04:25     19 01 13.145034 +27 30 57.83777
 2019-Jan-28 04:26  m  19 01 13.095482 +27 30 55.70668
 2019-Jan-28 04:27  m  19 01 13.045916 +27 30 53.57582
 2019-Jan-28 04:28  m  19 01 12.996337 +27 30 51.44521
 2019-Jan-28 04:29  m  19 01 12.946743 +27 30 49.31484
 2019-Jan-28 04:30  m  19 01 12.897136 +27 30 47.18471
 2019-Jan-28 04:31  m  19 01 12.847514 +27 30 45.05482
 2019-Jan-28 04:32  m  19 01 12.797878 +27 30 42.92517
 2019-Jan-28 04:33  m  19 01 12.748228 +27 30 40.79577
 2019-Jan-28 04:34  m  19 01 12.698562 +27 30 38.66660
 2019-Jan-28 04:35  m  19 01 12.648881 +27 30 36.53766
 2019-Jan-28 04:36  m  19 01 12.599186 +27 30 34.40897
 2019-Jan-28 04:37  m  19 01 12.549474 +27 30 32.28052
 2019-Jan-28 04:38  m  19 01 12.499747 +27 30 30.15230
 2019-Jan-28 04:39  m  19 01 12.450004 +27 30 28.02432
 2019-Jan-28 04:40  m  19 01 12.400244 +27 30 25.89657
 2019-Jan-28 04:41  m  19 01 12.350469 +27 30 23.76906
 2019-Jan-28 04:42  m  19 01 12.300676 +27 30 21.64179
 2019-Jan-28 04:43  m  19 01 12.250867 +27 30 19.51475
 2019-Jan-28 04:44  m  19 01 12.201041 +27 30 17.38794
 2019-Jan-28 04:45  m  19 01 12.151198 +27 30 15.26137
 2019-Jan-28 04:46  m  19 01 12.101337 +27 30 13.13503
 2019-Jan-28 04:47  m  19 01 12.051459 +27 30 11.00892
 2019-Jan-28 04:48  m  19 01 12.001562 +27 30 08.88305
 2019-Jan-28 04:49  m  19 01 11.951648 +27 30 06.75741
 2019-Jan-28 04:50  m  19 01 11.901715 +27 30 04.63200
 2019-Jan-28 04:51  m  19 01 11.851764 +27 30 02.50681
 2019-Jan-28 04:52  m  19 01 11.801795 +27 30 00.38186
 2019-Jan-28 04:53  m  19 01 11.751806 +27 29 58.25714
 2019-Jan-28 04:54  m  19 01 11.701798 +27 29 56.13265
 2019-Jan-28 04:55  m  19 01 11.651771 +27 29 54.00838
 2019-Jan-28 04:56  m  19 01 11.601725 +27 29 51.88434
 2019-Jan-28 04:57  m  19 01 11.551658 +27 29 49.76053
 2019-Jan-28 04:58  m  19 01 11.501572 +27 29 47.63695
 2019-Jan-28 04:59  m  19 01 11.451466 +27 29 45.51359
 2019-Jan-28 05:00  m  19 01 11.401339 +27 29 43.39045
 2019-Jan-28 05:01  m  19 01 11.351192 +27 29 41.26754
 2019-Jan-28 05:02  m  19 01 11.301024 +27 29 39.14486
 2019-Jan-28 05:03  m  19 01 11.250835 +27 29 37.02239
 2019-Jan-28 05:04  m  19 01 11.200625 +27 29 34.90015
 2019-Jan-28 05:05  m  19 01 11.150393 +27 29 32.77813
 2019-Jan-28 05:06  m  19 01 11.100140 +27 29 30.65634
 2019-Jan-28 05:07  m  19 01 11.049865 +27 29 28.53476
 2019-Jan-28 05:08  m  19 01 10.999569 +27 29 26.41340
 2019-Jan-28 05:09  m  19 01 10.949250 +27 29 24.29227
 2019-Jan-28 05:10  m  19 01 10.898908 +27 29 22.17135
 2019-Jan-28 05:11  m  19 01 10.848545 +27 29 20.05065
 2019-Jan-28 05:12  m  19 01 10.798158 +27 29 17.93016
 2019-Jan-28 05:13  m  19 01 10.747748 +27 29 15.80990
 2019-Jan-28 05:14  m  19 01 10.697316 +27 29 13.68985
 2019-Jan-28 05:15  m  19 01 10.646860 +27 29 11.57001
 2019-Jan-28 05:16  m  19 01 10.596380 +27 29 09.45039
 2019-Jan-28 05:17  m  19 01 10.545877 +27 29 07.33098
 2019-Jan-28 05:18  m  19 01 10.495349 +27 29 05.21179
 2019-Jan-28 05:19  m  19 01 10.444798 +27 29 03.09281
 2019-Jan-28 05:20  m  19 01 10.394222 +27 29 00.97404
 2019-Jan-28 05:21  m  19 01 10.343621 +27 28 58.85548
 2019-Jan-28 05:22  m  19 01 10.292996 +27 28 56.73713
 2019-Jan-28 05:23  m  19 01 10.242346 +27 28 54.61899
 2019-Jan-28 05:24  m  19 01 10.191671 +27 28 52.50106
 2019-Jan-28 05:25  m  19 01 10.140971 +27 28 50.38334
 2019-Jan-28 05:26  m  19 01 10.090245 +27 28 48.26582
 2019-Jan-28 05:27  m  19 01 10.039493 +27 28 46.14852
 2019-Jan-28 05:28  m  19 01 09.988715 +27 28 44.03141
 2019-Jan-28 05:29  m  19 01 09.937912 +27 28 41.91452
 2019-Jan-28 05:30  m  19 01 09.887082 +27 28 39.79782
 2019-Jan-28 05:31  m  19 01 09.836225 +27 28 37.68133
 2019-Jan-28 05:32  m  19 01 09.785342 +27 28 35.56504
 2019-Jan-28 05:33  m  19 01 09.734432 +27 28 33.44896
 2019-Jan-28 05:34  m  19 01 09.683495 +27 28 31.33307
 2019-Jan-28 05:35  m  19 01 09.632531 +27 28 29.21739
 2019-Jan-28 05:36  m  19 01 09.581540 +27 28 27.10191
 2019-Jan-28 05:37  m  19 01 09.530521 +27 28 24.98662
 2019-Jan-28 05:38  m  19 01 09.479474 +27 28 22.87153
 2019-Jan-28 05:39  m  19 01 09.428399 +27 28 20.75664
 2019-Jan-28 05:40  m  19 01 09.377296 +27 28 18.64195
 2019-Jan-28 05:41  m  19 01 09.326164 +27 28 16.52745
 2019-Jan-28 05:42  m  19 01 09.275005 +27 28 14.41314
 2019-Jan-28 05:43  m  19 01 09.223816 +27 28 12.29903
 2019-Jan-28 05:44  m  19 01 09.172599 +27 28 10.18511
 2019-Jan-28 05:45  m  19 01 09.121352 +27 28 08.07139
 2019-Jan-28 05:46  m  19 01 09.070076 +27 28 05.95785
 2019-Jan-28 05:47  m  19 01 09.018771 +27 28 03.84451
 2019-Jan-28 05:48  m  19 01 08.967437 +27 28 01.73135
 2019-Jan-28 05:49  m  19 01 08.916072 +27 27 59.61839
 2019-Jan-28 05:50  m  19 01 08.864678 +27 27 57.50561
 2019-Jan-28 05:51  m  19 01 08.813253 +27 27 55.39302
 2019-Jan-28 05:52  m  19 01 08.761798 +27 27 53.28061
 2019-Jan-28 05:53  m  19 01 08.710313 +27 27 51.16839
 2019-Jan-28 05:54  m  19 01 08.658796 +27 27 49.05636
 2019-Jan-28 05:55  m  19 01 08.607249 +27 27 46.94451
 2019-Jan-28 05:56  m  19 01 08.555671 +27 27 44.83284
 2019-Jan-28 05:57  m  19 01 08.504062 +27 27 42.72135
 2019-Jan-28 05:58  m  19 01 08.452422 +27 27 40.61004
 2019-Jan-28 05:59  m  19 01 08.400750 +27 27 38.49891
 2019-Jan-28 06:00  m  19 01 08.349046 +27 27 36.38796
 2019-Jan-28 06:01  m  19 01 08.297310 +27 27 34.27719
